IRIDIUM 39              
1 25042U 97069D   25263.82463142  .00000761  00000+0  19363-3 0  9990
2 25042  86.3984 170.1693 0017671 354.7917   5.3101 14.49333252462815
IRIDIUM 38              
1 25043U 97069E   25263.83843399  .00000609  00000+0  19424-3 0  9997
2 25043  86.4025 192.9379 0003633 112.1963 247.9621 14.38196330459703
IRIDIUM 42              
1 25077U 97077A   25263.89256974  .00000571  00000+0  18838-3 0  9992
2 25077  86.4020 199.1950 0002522 103.4097 256.7382 14.36425628454931
IRIDIUM 44              
1 25078U 97077B   25263.86655815  .00000551  00000+0  16769-3 0  9996
2 25078  86.4035 180.9026 0004094  79.9774 280.1887 14.40320579457472
IRIDIUM 45              
1 25104U 97082A   25263.79396781  .00019156  00000+0  62869-3 0  9991
2 25104  86.3627   1.3524 0107602 333.2850  26.2875 15.25936313466601
IRIDIUM 24              
1 25105U 97082B   25263.92437018  .00000704  00000+0  20770-3 0  9990
2 25105  86.3914  39.6623 0013296 117.3210 242.9346 14.42190136457019
IRIDIUM 51              
1 25262U 98018A   25263.76678142  .00058917  00000+0  10505-2 0  9994
2 25262  86.3863   8.2704 0074014 240.0338 119.3558 15.46788785461765
IRIDIUM 57              
1 25273U 98019B   25263.92033314  .00000393  00000+0  12878-3 0  9992
2 25273  86.3910 105.1436 0002212  90.2780 269.8670 14.35951218438520
